{
  "tleItemMap": {
    "04793": {
      "id": "04793",
      "name": "NOAA 1",
      "epoch": 24325.63579831,
      "line1": "1 04793U 70106A   24325.63579831 -.00000031  00000+0  75999-4 0  9992",
      "line2": "2 04793 101.4251  12.2886 0031587  31.6003 123.0557 12.54036317468792"
    }
  }
}
